LANDSAT 9               
1 49260U 21088A   24137.92620769  .00001272  00000+0  29214-3 0  9990
2 49260  98.1876 208.0727 0001219  91.6233 268.5105 14.57142838140145
